ONEWEB-0325             
1 49194U 21083J   22134.91667824 -.00014799  00000-0 -37621-1 0  9998
2 49194  87.9093 272.2694 0000914 112.2895 301.2577 13.18703667  1300
ONEWEB-0326             
1 49195U 21083K   22134.91667824 -.00013559  00000-0 -34469-1 0  9999
2 49195  87.9092 272.3656 0002418 116.3852 245.6780 13.18700945  1301
ONEWEB-0327             
1 49196U 21083L   22134.91667824 -.00015580  00000-0 -39607-1 0  9995
2 49196  87.9110 272.3326 0002592 115.9037 319.6928 13.18704325  1302
ONEWEB-0328             
1 49197U 21083M   22134.91667824 -.00033399  00000-0 -91798-1 0  9993
2 49197  87.8962 257.0814 0001882 108.0021 226.2898 13.13489618  1305
ONEWEB-0331             
1 49198U 21083N   22134.91667824 -.00013836  00000-0 -35175-1 0  9995
2 49198  87.9105 272.3771 0002097 110.2972 273.7633 13.18696039  1303
ONEWEB-0333             
1 49199U 21083P   22134.91667824 -.00033589  00000-0 -92316-1 0  9993
2 49199  87.9089 257.0823 0001604  93.1405 262.2644 13.13494523  1300
ONEWEB-0334             
1 49200U 21083Q   22135.25001157  .00044931  00000-0  46312-2 0  9992
2 49200  87.2058 242.1689 0005370  89.4301 140.3621 14.90017128 37492
ONEWEB-0335             
1 49201U 21083R   22134.91667824 -.00034014  00000-0 -93491-1 0  9996
2 49201  87.9160 257.0320 0001931 112.7554 263.7954 13.13491705  1301
ONEWEB-0336             
1 49202U 21083S   22135.25001157  .00108421  00000-0  29346+0 0  9994
2 49202  87.9127 256.9666 0001967 101.7646 198.2061 13.13451418 36109
ONEWEB-0337             
1 49203U 21083T   22134.91667824 -.00035248  00000-0 -96901-1 0  9997
2 49203  87.9153 257.0150 0001792 111.5430 307.2435 13.13488104  1308
ONEWEB-0338             
1 49204U 21083U   22134.91667824 -.00057129  00000-0 -59740-2 0  9991
2 49204  87.2116 242.4666 0005317 108.1680  34.7197 14.90073586  1304
ONEWEB-0339             
1 49205U 21083V   22135.25001157  .00044757  00000-0  12197+0 0  9994
2 49205  87.8950 257.0128 0001371 106.1467 109.2096 13.13448744 36073
ONEWEB-0340             
1 49206U 21083W   22134.91667824 -.00015800  00000-0 -40171-1 0  9990
2 49206  87.9100 272.3770 0001788 106.6364 336.2196 13.18700229  1303
ONEWEB-0341             
1 49207U 21083X   22134.91667824 -.00014545  00000-0 -36977-1 0  9995
2 49207  87.9118 272.2859 0001054 136.5373 269.6078 13.18699138  1302
ONEWEB-0342             
1 49208U 21083Y   22134.91667824 -.00055577  00000-0 -58090-2 0  9997
2 49208  87.2080 242.3497 0005477 109.2086 200.6875 14.90083223  1304
ONEWEB-0343             
1 49209U 21083Z   22134.91667824 -.00014978  00000-0 -38079-1 0  9992
2 49209  87.9110 272.3337 0000525 133.2137 287.6471 13.18698515  1307
ONEWEB-0344             
1 49210U 21083AA  22135.25001157  .00044278  00000-0  12067+0 0  9994
2 49210  87.9161 256.9896 0001831 106.9420 256.6222 13.13448147 36088
ONEWEB-0345             
1 49211U 21083AB  22134.91667824 -.00037270  00000-0 -10248+0 0  9991
2 49211  87.9154 257.0755 0002124 127.3679  16.1263 13.13487836  1305
ONEWEB-0346             
1 49212U 21083AC  22134.91667824 -.00014081  00000-0 -35798-1 0  9996
2 49212  87.9106 272.3269 0002285 113.2270 278.2318 13.18698130  1300
ONEWEB-0348             
1 49213U 21083AD  22134.91667824 -.00056266  00000-0 -58823-2 0  9993
2 49213  87.2103 242.4269 0005102 100.9414 166.2756 14.90080003  1300
ONEWEB-0350             
1 49214U 21083AE  22134.91667824 -.00036483  00000-0 -10030+0 0  9998
2 49214  87.9018 257.0846 0001889 134.0038 327.1961 13.13494234  1309
ONEWEB-0351             
1 49215U 21083AF  22134.91667824 -.00055357  00000-0 -57889-2 0  9996
2 49215  87.2039 242.2222 0004991  92.8696 300.7915 14.90064622  1304
ONEWEB-0352             
1 49216U 21083AG  22134.91667824 -.00036877  00000-0 -10140+0 0  9999
2 49216  87.8944 257.0818 0001884  90.1615  95.7382 13.13484101  1302
ONEWEB-0354             
1 49217U 21083AH  22134.91667824 -.00056737  00000-0 -59328-2 0  9991
2 49217  87.2088 242.3683 0004562 100.4058 185.5317 14.90076332  1300
ONEWEB-0355             
1 49218U 21083AJ  22134.91667824 -.00034556  00000-0 -94990-1 0  9990
2 49218  87.9117 257.0378 0001453 104.4184 293.2605 13.13490444  1300
ONEWEB-0357             
1 49219U 21083AK  22135.25001157  .00059452  00000-0  61141-2 0  9993
2 49219  87.2084 242.2456 0005401 108.8229 102.1078 14.90029558 37496
ONEWEB-0332             
1 49279U 21090A   22135.25001157  .00000013  00000-0  00000+0 0  9990
2 49279  87.9836 226.6072 0001808 313.0045  88.2672 13.31698858 31304
ONEWEB-0347             
1 49280U 21090B   22135.25001157  .00002697  00000-0  10065-2 0  9997
2 49280  87.9290 225.3372 0001001 182.3108  50.0215 14.31636582 31498
ONEWEB-0349             
1 49281U 21090C   22134.91667824 -.00045106  00000-0 -45483-2 0  9995
2 49281  87.2113 218.1986 0000988 174.0233  23.7898 14.91480741  1308
ONEWEB-0353             
1 49282U 21090D   22135.25001157  .00000013  00000-0  00000+0 0  9994
2 49282  87.9769 226.6084 0001414 244.4633  81.3711 13.30798664 32594
ONEWEB-0356             
1 49283U 21090E   22135.25001157 -.00009531  00000-0 -95905-3 0  9993
2 49283  87.2110 218.0822 0000637 151.9422 153.8240 14.91452461 33129
ONEWEB-0358             
1 49284U 21090F   22134.91667824 -.00045768  00000-0 -49549-2 0  9999
2 49284  87.5246 221.7151 0000864 101.1626 236.8704 14.88622666  1308
ONEWEB-0359             
1 49285U 21090G   22134.91667824 -.00046018  00000-0 -49830-2 0  9992
2 49285  87.5267 221.7166 0001404 106.0629 307.9961 14.88614914  1308
ONEWEB-0360             
1 49286U 21090H   22134.91667824 -.00042834  00000-0 -43208-2 0  9998
2 49286  87.2119 218.2232 0002526 289.4302   7.2585 14.91452101  1301
ONEWEB-0361             
1 49287U 21090J   22134.91667824 -.00002463  00000-0 -24920-3 0  9994
2 49287  87.2116 218.2070 0000487 185.5528 212.4009 14.91521996  1309
ONEWEB-0362             
1 49288U 21090K   22134.91667824 -.00043218  00000-0 -10846+0 0  9996
2 49288  87.9230 241.9389 0002249  91.8360 320.2633 13.19749567  1307
ONEWEB-0363             
1 49289U 21090L   22135.25001157 -.00009191  00000-0 -92505-3 0  9994
2 49289  87.2133 218.1471 0002562 143.3260 118.7297 14.91443589 33128
ONEWEB-0364             
1 49290U 21090M   22135.25001157  .00003290  00000-0  13253-2 0  9990
2 49290  87.9029 225.4358 0001921 128.1664 120.1000 14.27795936 32744
ONEWEB-0365             
1 49291U 21090N   22135.25001157  .00032762  00000-0  81519-1 0  9996
2 49291  87.9235 241.8543 0001844 106.7978  58.5487 13.19715486 30660
ONEWEB-0366             
1 49292U 21090P   22135.25001157 -.00393172  00000-0 -90102+0 0  9990
2 49292  87.9650 226.6086 0001189 323.0368  30.4774 13.27999877 32582
ONEWEB-0367             
1 49293U 21090Q   22135.25001157 -.00008851  00000-0 -88996-3 0  9990
2 49293  87.2154 218.2004 0001940 299.2189 315.6522 14.91488083 33126
ONEWEB-0368             
1 49294U 21090R   22135.25001157  .00007695  00000-0  31080-2 0  9995
2 49294  87.8984 225.4515 0000189 222.1527 157.1395 14.27790416 32756
ONEWEB-0369             
1 49295U 21090S   22134.91667824 -.00042889  00000-0 -10764+0 0  9996
2 49295  87.9242 241.8781 0002102  95.0553 302.3926 13.19742679  1304
ONEWEB-0370             
1 49296U 21090T   22135.25001157 -.00007891  00000-0 -79378-3 0  9990
2 49296  87.2097 218.0402 0000571 151.1747 240.2828 14.91482095 33141
ONEWEB-0371             
1 49297U 21090U   22134.91667824 -.00042666  00000-0 -10707+0 0  9998
2 49297  87.9233 241.8178 0001957 107.2159 260.7326 13.19747530  1303
ONEWEB-0372             
1 49298U 21090V   22134.91667824 -.00045944  00000-0 -46331-2 0  9996
2 49298  87.2103 218.1700 0001768 291.5618 236.7285 14.91481708  1308
ONEWEB-0373             
1 49299U 21090W   22135.25001157  .00006050  00000-0  22647-2 0  9993
2 49299  87.9125 225.3412 0002754 300.2217 141.5540 14.31648991 32785
ONEWEB-0374             
1 49300U 21090X   22135.25001157  .00000013  00000-0  00000+0 0  9995
2 49300  87.9752 226.6086 0002595 327.3444 180.8944 13.31345557 32561
ONEWEB-0375             
1 49301U 21090Y   22134.91667824 -.00045788  00000-0 -49579-2 0  9994
2 49301  87.5208 221.6641 0000195 130.1249 229.5632 14.88616496  1302
ONEWEB-0376             
1 49302U 21090Z   22135.25001157  .00032612  00000-0  81150-1 0  9994
2 49302  87.9237 241.8304 0001907  95.0196  63.0376 13.19714480 30696
ONEWEB-0377             
1 49303U 21090AA  22134.91667824 -.00046406  00000-0 -50249-2 0  9990
2 49303  87.5186 221.7429 0001877 111.2995 313.6235 14.88617199  1305
ONEWEB-0378             
1 49304U 21090AB  22135.25001157 -.00008899  00000-0 -89525-3 0  9994
2 49304  87.2056 217.9316 0001088 230.0215 342.6045 14.91465820 33166
ONEWEB-0379             
1 49305U 21090AC  22135.25001157  .00000013  00000-0  00000+0 0  9990
2 49305  87.9724 226.6024 0002262  59.8696  89.7054 13.30386996 32586
ONEWEB-0380             
1 49306U 21090AD  22134.91667824 -.00042755  00000-0 -10730+0 0  9994
2 49306  87.9236 241.9022 0001834 109.4616 280.4850 13.19744555  1307
ONEWEB-0381             
1 49307U 21090AE  22135.25001157 -.00008677  00000-0 -87263-3 0  9998
2 49307  87.2144 218.1621 0000830 123.9914 238.9918 14.91480548 33125
ONEWEB-0382             
1 49308U 21090AF  22135.25001157 -.00009926  00000-0 -99888-3 0  9993
2 49308  87.2095 218.0140 0000925 164.3621 136.8909 14.91446817 33144
ONEWEB-0383             
1 49309U 21090AG  22135.25001157  .00000013  00000-0  00000+0 0  9994
2 49309  87.9759 226.5509 0002397 343.6571 311.6923 13.33692586 32603
ONEWEB-0384             
1 49310U 21090AH  22135.25001157 -.00009397  00000-0 -94574-3 0  9995
2 49310  87.2087 218.0128 0000481 234.3631  52.5848 14.91445416 33140
ONEWEB-0385             
1 49311U 21090AJ  22135.25001157 -.00010553  00000-0 -10616-2 0  9996
2 49311  87.2036 217.8733 0001224 247.7532  81.2566 14.91458653 33141
